{
  "type": "FeatureCollection",
  "name": "SmartGrid_3D_Buildings_3Zones",
  "features": [
    {
      "type": "Feature",
      "geometry": {
        "type": "Polygon",
        "coordinates": [
          [
            [
              77.2087751,
              28.6118166
            ],
            [
              77.2092669,
              28.6118166
            ],
            [
              77.2092669,
              28.6121044
            ],
            [
              77.2087751,
              28.6121044
            ],
            [
              77.2087751,
              28.6118166
            ]
          ]
        ]
      },
      "properties": {
        "id": "PS_CENTRAL_01",
        "meter_id": "STATION_BULK_MTR_01",
        "name": "Central Generation & 33kV Primary Switching Station",
        "category": "PowerGenerationSubstation",
        "contracted_load_kw": 5000.0,
        "height": 16.0,
        "elevation": 220.0,
        "zone_id": "Zone_0_PowerStation",
        "transformer_id": "PRIMARY_33KV_STATION",
        "feeder_id": "GRID_INTERCONNECT",
        "risk_level": "NORMAL",
        "probable_cause": "NORMAL",
        "anomaly_score": 0.0,
        "reported_kw": 241.29,
        "true_kw": 241.29,
        "fill_color": [
          37,
          99,
          235,
          220
        ],
        "wireframe_color": [
          29,
          78,
          216,
          255
        ],
        "is_power_station": true,
        "is_anomalous": false
      }
    },
    {
      "type": "Feature",
      "geometry": {
        "type": "Polygon",
        "coordinates": [
          [
            [
              77.2068594,
              28.6150991
            ],
            [
              77.2069824,
              28.6150991
            ],
            [
              77.2069824,
              28.615207
            ],
            [
              77.2068594,
              28.615207
            ],
            [
              77.2068594,
              28.6150991
            ]
          ]
        ]
      },
      "properties": {
        "id": "CONS_N_001",
        "meter_id": "MTR_N_001",
        "name": "Residential #1 (Z1_North)",
        "category": "Residential",
        "contracted_load_kw": 6.0,
        "height": 7.0,
        "elevation": 225.0,
        "zone_id": "Zone_1_North",
        "transformer_id": "TX_101",
        "feeder_id": "FDR_NORTH_11KV",
        "risk_level": "NORMAL",
        "probable_cause": "NORMAL",
        "anomaly_score": 29.4,
        "reported_kw": 4.801,
        "true_kw": 4.801,
        "fill_color": [
          255,
          255,
          255,
          210
        ],
        "wireframe_color": [
          148,
          163,
          184,
          200
        ],
        "is_power_station": false,
        "is_anomalous": false
      }
    },
    {
      "type": "Feature",
      "geometry": {
        "type": "Polygon",
        "coordinates": [
          [
            [
              77.2068492,
              28.6146405
            ],
            [
              77.2069926,
              28.6146405
            ],
            [
              77.2069926,
              28.6147664
            ],
            [
              77.2068492,
              28.6147664
            ],
            [
              77.2068492,
              28.6146405
            ]
          ]
        ]
      },
      "properties": {
        "id": "CONS_N_002",
        "meter_id": "MTR_N_002",
        "name": "Commercial #2 (Z1_North)",
        "category": "Commercial",
        "contracted_load_kw": 8.0,
        "height": 10.5,
        "elevation": 228.5,
        "zone_id": "Zone_1_North",
        "transformer_id": "TX_101",
        "feeder_id": "FDR_NORTH_11KV",
        "risk_level": "NORMAL",
        "probable_cause": "NORMAL",
        "anomaly_score": 29.4,
        "reported_kw": 5.036,
        "true_kw": 5.036,
        "fill_color": [
          255,
          255,
          255,
          210
        ],
        "wireframe_color": [
          148,
          163,
          184,
          200
        ],
        "is_power_station": false,
        "is_anomalous": false
      }
    },
    {
      "type": "Feature",
      "geometry": {
        "type": "Polygon",
        "coordinates": [
          [
            [
              77.2073204,
              28.6150991
            ],
            [
              77.2074434,
              28.6150991
            ],
            [
              77.2074434,
              28.615207
            ],
            [
              77.2073204,
              28.615207
            ],
            [
              77.2073204,
              28.6150991
            ]
          ]
        ]
      },
      "properties": {
        "id": "CONS_N_003",
        "meter_id": "MTR_N_003",
        "name": "Residential #3 (Z1_North)",
        "category": "Residential",
        "contracted_load_kw": 6.0,
        "height": 7.0,
        "elevation": 225.0,
        "zone_id": "Zone_1_North",
        "transformer_id": "TX_101",
        "feeder_id": "FDR_NORTH_11KV",
        "risk_level": "NORMAL",
        "probable_cause": "NORMAL",
        "anomaly_score": 29.4,
        "reported_kw": 4.601,
        "true_kw": 4.601,
        "fill_color": [
          255,
          255,
          255,
          210
        ],
        "wireframe_color": [
          148,
          163,
          184,
          200
        ],
        "is_power_station": false,
        "is_anomalous": false
      }
    },
    {
      "type": "Feature",
      "geometry": {
        "type": "Polygon",
        "coordinates": [
          [
            [
              77.2072999,
              28.6146315
            ],
            [
              77.2074639,
              28.6146315
            ],
            [
              77.2074639,
              28.6147754
            ],
            [
              77.2072999,
              28.6147754
            ],
            [
              77.2072999,
              28.6146315
            ]
          ]
        ]
      },
      "properties": {
        "id": "CONS_N_004",
        "meter_id": "MTR_N_004",
        "name": "LightIndustrial #4 (Z1_North)",
        "category": "LightIndustrial",
        "contracted_load_kw": 25.0,
        "height": 7.0,
        "elevation": 225.0,
        "zone_id": "Zone_1_North",
        "transformer_id": "TX_101",
        "feeder_id": "FDR_NORTH_11KV",
        "risk_level": "CRITICAL",
        "probable_cause": "THEFT_TAMPERING",
        "anomaly_score": 90.0,
        "reported_kw": 0.888,
        "true_kw": 3.172,
        "fill_color": [
          239,
          68,
          68,
          220
        ],
        "wireframe_color": [
          148,
          163,
          184,
          200
        ],
        "is_power_station": false,
        "is_anomalous": true
      }
    },
    {
      "type": "Feature",
      "geometry": {
        "type": "Polygon",
        "coordinates": [
          [
            [
              77.2075253,
              28.6150991
            ],
            [
              77.2076483,
              28.6150991
            ],
            [
              77.2076483,
              28.615207
            ],
            [
              77.2075253,
              28.615207
            ],
            [
              77.2075253,
              28.6150991
            ]
          ]
        ]
      },
      "properties": {
        "id": "CONS_N_005",
        "meter_id": "MTR_N_005",
        "name": "Residential #5 (Z1_North)",
        "category": "Residential",
        "contracted_load_kw": 4.5,
        "height": 7.0,
        "elevation": 225.0,
        "zone_id": "Zone_1_North",
        "transformer_id": "TX_101",
        "feeder_id": "FDR_NORTH_11KV",
        "risk_level": "NORMAL",
        "probable_cause": "NORMAL",
        "anomaly_score": 29.4,
        "reported_kw": 3.914,
        "true_kw": 3.914,
        "fill_color": [
          255,
          255,
          255,
          210
        ],
        "wireframe_color": [
          148,
          163,
          184,
          200
        ],
        "is_power_station": false,
        "is_anomalous": false
      }
    },
    {
      "type": "Feature",
      "geometry": {
        "type": "Polygon",
        "coordinates": [
          [
            [
              77.2075253,
              28.6146495
            ],
            [
              77.2076483,
              28.6146495
            ],
            [
              77.2076483,
              28.6147574
            ],
            [
              77.2075253,
              28.6147574
            ],
            [
              77.2075253,
              28.6146495
            ]
          ]
        ]
      },
      "properties": {
        "id": "CONS_N_006",
        "meter_id": "MTR_N_006",
        "name": "Residential #6 (Z1_North)",
        "category": "Residential",
        "contracted_load_kw": 3.0,
        "height": 3.5,
        "elevation": 221.5,
        "zone_id": "Zone_1_North",
        "transformer_id": "TX_101",
        "feeder_id": "FDR_NORTH_11KV",
        "risk_level": "NORMAL",
        "probable_cause": "NORMAL",
        "anomaly_score": 29.4,
        "reported_kw": 2.722,
        "true_kw": 2.722,
        "fill_color": [
          255,
          255,
          255,
          210
        ],
        "wireframe_color": [
          148,
          163,
          184,
          200
        ],
        "is_power_station": false,
        "is_anomalous": false
      }
    },
    {
      "type": "Feature",
      "geometry": {
        "type": "Polygon",
        "coordinates": [
          [
            [
              77.2077302,
              28.6150991
            ],
            [
              77.2078531,
              28.6150991
            ],
            [
              77.2078531,
              28.615207
            ],
            [
              77.2077302,
              28.615207
            ],
            [
              77.2077302,
              28.6150991
            ]
          ]
        ]
      },
      "properties": {
        "id": "CONS_N_007",
        "meter_id": "MTR_N_007",
        "name": "Residential #7 (Z1_North)",
        "category": "Residential",
        "contracted_load_kw": 4.5,
        "height": 3.5,
        "elevation": 221.5,
        "zone_id": "Zone_1_North",
        "transformer_id": "TX_101",
        "feeder_id": "FDR_NORTH_11KV",
        "risk_level": "NORMAL",
        "probable_cause": "NORMAL",
        "anomaly_score": 29.4,
        "reported_kw": 3.637,
        "true_kw": 3.637,
        "fill_color": [
          255,
          255,
          255,
          210
        ],
        "wireframe_color": [
          148,
          163,
          184,
          200
        ],
        "is_power_station": false,
        "is_anomalous": false
      }
    },
    {
      "type": "Feature",
      "geometry": {
        "type": "Polygon",
        "coordinates": [
          [
            [
              77.2077302,
              28.6146495
            ],
            [
              77.2078531,
              28.6146495
            ],
            [
              77.2078531,
              28.6147574
            ],
            [
              77.2077302,
              28.6147574
            ],
            [
              77.2077302,
              28.6146495
            ]
          ]
        ]
      },
      "properties": {
        "id": "CONS_N_008",
        "meter_id": "MTR_N_008",
        "name": "Residential #8 (Z1_North)",
        "category": "Residential",
        "contracted_load_kw": 3.0,
        "height": 7.0,
        "elevation": 225.0,
        "zone_id": "Zone_1_North",
        "transformer_id": "TX_101",
        "feeder_id": "FDR_NORTH_11KV",
        "risk_level": "NORMAL",
        "probable_cause": "NORMAL",
        "anomaly_score": 29.4,
        "reported_kw": 2.489,
        "true_kw": 2.489,
        "fill_color": [
          255,
          255,
          255,
          210
        ],
        "wireframe_color": [
          148,
          163,
          184,
          200
        ],
        "is_power_station": false,
        "is_anomalous": false
      }
    },
    {
      "type": "Feature",
      "geometry": {
        "type": "Polygon",
        "coordinates": [
          [
            [
              77.2081195,
              28.6150991
            ],
            [
              77.2082424,
              28.6150991
            ],
            [
              77.2082424,
              28.615207
            ],
            [
              77.2081195,
              28.615207
            ],
            [
              77.2081195,
              28.6150991
            ]
          ]
        ]
      },
      "properties": {
        "id": "CONS_N_009",
        "meter_id": "MTR_N_009",
        "name": "Residential #9 (Z1_North)",
        "category": "Residential",
        "contracted_load_kw": 3.0,
        "height": 7.0,
        "elevation": 225.0,
        "zone_id": "Zone_1_North",
        "transformer_id": "TX_101",
        "feeder_id": "FDR_NORTH_11KV",
        "risk_level": "CRITICAL",
        "probable_cause": "THEFT_TAMPERING",
        "anomaly_score": 90.0,
        "reported_kw": 0.836,
        "true_kw": 2.389,
        "fill_color": [
          239,
          68,
          68,
          220
        ],
        "wireframe_color": [
          148,
          163,
          184,
          200
        ],
        "is_power_station": false,
        "is_anomalous": true
      }
    },
    {
      "type": "Feature",
      "geometry": {
        "type": "Polygon",
        "coordinates": [
          [
            [
              77.2081195,
              28.6146495
            ],
            [
              77.2082424,
              28.6146495
            ],
            [
              77.2082424,
              28.6147574
            ],
            [
              77.2081195,
              28.6147574
            ],
            [
              77.2081195,
              28.6146495
            ]
          ]
        ]
      },
      "properties": {
        "id": "CONS_N_010",
        "meter_id": "MTR_N_010",
        "name": "Residential #10 (Z1_North)",
        "category": "Residential",
        "contracted_load_kw": 4.5,
        "height": 10.5,
        "elevation": 228.5,
        "zone_id": "Zone_1_North",
        "transformer_id": "TX_101",
        "feeder_id": "FDR_NORTH_11KV",
        "risk_level": "NORMAL",
        "probable_cause": "NORMAL",
        "anomaly_score": 29.4,
        "reported_kw": 3.629,
        "true_kw": 3.629,
        "fill_color": [
          255,
          255,
          255,
          210
        ],
        "wireframe_color": [
          148,
          163,
          184,
          200
        ],
        "is_power_station": false,
        "is_anomalous": false
      }
    },
    {
      "type": "Feature",
      "geometry": {
        "type": "Polygon",
        "coordinates": [
          [
            [
              77.2082834,
              28.6150901
            ],
            [
              77.2084268,
              28.6150901
            ],
            [
              77.2084268,
              28.615216
            ],
            [
              77.2082834,
              28.615216
            ],
            [
              77.2082834,
              28.6150901
            ]
          ]
        ]
      },
      "properties": {
        "id": "CONS_N_011",
        "meter_id": "MTR_N_011",
        "name": "Commercial #11 (Z1_North)",
        "category": "Commercial",
        "contracted_load_kw": 12.0,
        "height": 10.5,
        "elevation": 228.5,
        "zone_id": "Zone_1_North",
        "transformer_id": "TX_101",
        "feeder_id": "FDR_NORTH_11KV",
        "risk_level": "NORMAL",
        "probable_cause": "NORMAL",
        "anomaly_score": 29.4,
        "reported_kw": 6.958,
        "true_kw": 6.958,
        "fill_color": [
          255,
          255,
          255,
          210
        ],
        "wireframe_color": [
          148,
          163,
          184,
          200
        ],
        "is_power_station": false,
        "is_anomalous": false
      }
    },
    {
      "type": "Feature",
      "geometry": {
        "type": "Polygon",
        "coordinates": [
          [
            [
              77.2082936,
              28.6146495
            ],
            [
              77.2084166,
              28.6146495
            ],
            [
              77.2084166,
              28.6147574
            ],
            [
              77.2082936,
              28.6147574
            ],
            [
              77.2082936,
              28.6146495
            ]
          ]
        ]
      },
      "properties": {
        "id": "CONS_N_012",
        "meter_id": "MTR_N_012",
        "name": "Residential #12 (Z1_North)",
        "category": "Residential",
        "contracted_load_kw": 6.0,
        "height": 7.0,
        "elevation": 225.0,
        "zone_id": "Zone_1_North",
        "transformer_id": "TX_101",
        "feeder_id": "FDR_NORTH_11KV",
        "risk_level": "NORMAL",
        "probable_cause": "NORMAL",
        "anomaly_score": 29.4,
        "reported_kw": 5.837,
        "true_kw": 5.837,
        "fill_color": [
          255,
          255,
          255,
          210
        ],
        "wireframe_color": [
          148,
          163,
          184,
          200
        ],
        "is_power_station": false,
        "is_anomalous": false
      }
    },
    {
      "type": "Feature",
      "geometry": {
        "type": "Polygon",
        "coordinates": [
          [
            [
              77.2068594,
              28.6142897
            ],
            [
              77.2069824,
              28.6142897
            ],
            [
              77.2069824,
              28.6143977
            ],
            [
              77.2068594,
              28.6143977
            ],
            [
              77.2068594,
              28.6142897
            ]
          ]
        ]
      },
      "properties": {
        "id": "CONS_N_013",
        "meter_id": "MTR_N_013",
        "name": "Residential #13 (Z1_North)",
        "category": "Residential",
        "contracted_load_kw": 6.0,
        "height": 3.5,
        "elevation": 221.5,
        "zone_id": "Zone_1_North",
        "transformer_id": "TX_101",
        "feeder_id": "FDR_NORTH_11KV",
        "risk_level": "NORMAL",
        "probable_cause": "NORMAL",
        "anomaly_score": 29.4,
        "reported_kw": 5.342,
        "true_kw": 5.342,
        "fill_color": [
          255,
          255,
          255,
          210
        ],
        "wireframe_color": [
          148,
          163,
          184,
          200
        ],
        "is_power_station": false,
        "is_anomalous": false
      }
    },
    {
      "type": "Feature",
      "geometry": {
        "type": "Polygon",
        "coordinates": [
          [
            [
              77.2068492,
              28.6138311
            ],
            [
              77.2069926,
              28.6138311
            ],
            [
              77.2069926,
              28.613957
            ],
            [
              77.2068492,
              28.613957
            ],
            [
              77.2068492,
              28.6138311
            ]
          ]
        ]
      },
      "properties": {
        "id": "CONS_N_014",
        "meter_id": "MTR_N_014",
        "name": "Commercial #14 (Z1_North)",
        "category": "Commercial",
        "contracted_load_kw": 12.0,
        "height": 10.5,
        "elevation": 228.5,
        "zone_id": "Zone_1_North",
        "transformer_id": "TX_101",
        "feeder_id": "FDR_NORTH_11KV",
        "risk_level": "NORMAL",
        "probable_cause": "NORMAL",
        "anomaly_score": 29.4,
        "reported_kw": 7.994,
        "true_kw": 7.994,
        "fill_color": [
          255,
          255,
          255,
          210
        ],
        "wireframe_color": [
          148,
          163,
          184,
          200
        ],
        "is_power_station": false,
        "is_anomalous": false
      }
    },
    {
      "type": "Feature",
      "geometry": {
        "type": "Polygon",
        "coordinates": [
          [
            [
              77.2073102,
              28.6142807
            ],
            [
              77.2074536,
              28.6142807
            ],
            [
              77.2074536,
              28.6144066
            ],
            [
              77.2073102,
              28.6144066
            ],
            [
              77.2073102,
              28.6142807
            ]
          ]
        ]
      },
      "properties": {
        "id": "CONS_N_015",
        "meter_id": "MTR_N_015",
        "name": "Commercial #15 (Z1_North)",
        "category": "Commercial",
        "contracted_load_kw": 15.0,
        "height": 14.0,
        "elevation": 232.0,
        "zone_id": "Zone_1_North",
        "transformer_id": "TX_101",
        "feeder_id": "FDR_NORTH_11KV",
        "risk_level": "HIGH",
        "probable_cause": "METER_MALFUNCTION",
        "anomaly_score": 82.0,
        "reported_kw": 0.42,
        "true_kw": 8.723,
        "fill_color": [
          249,
          115,
          22,
          220
        ],
        "wireframe_color": [
          148,
          163,
          184,
          200
        ],
        "is_power_station": false,
        "is_anomalous": true
      }
    },
    {
      "type": "Feature",
      "geometry": {
        "type": "Polygon",
        "coordinates": [
          [
            [
              77.2073102,
              28.6138311
            ],
            [
              77.2074536,
              28.6138311
            ],
            [
              77.2074536,
              28.613957
            ],
            [
              77.2073102,
              28.613957
            ],
            [
              77.2073102,
              28.6138311
            ]
          ]
        ]
      },
      "properties": {
        "id": "CONS_N_016",
        "meter_id": "MTR_N_016",
        "name": "Commercial #16 (Z1_North)",
        "category": "Commercial",
        "contracted_load_kw": 15.0,
        "height": 17.5,
        "elevation": 235.5,
        "zone_id": "Zone_1_North",
        "transformer_id": "TX_101",
        "feeder_id": "FDR_NORTH_11KV",
        "risk_level": "NORMAL",
        "probable_cause": "NORMAL",
        "anomaly_score": 29.4,
        "reported_kw": 9.996,
        "true_kw": 9.996,
        "fill_color": [
          255,
          255,
          255,
          210
        ],
        "wireframe_color": [
          148,
          163,
          184,
          200
        ],
        "is_power_station": false,
        "is_anomalous": false
      }
    },
    {
      "type": "Feature",
      "geometry": {
        "type": "Polygon",
        "coordinates": [
          [
            [
              77.2075048,
              28.6142717
            ],
            [
              77.2076687,
              28.6142717
            ],
            [
              77.2076687,
              28.6144156
            ],
            [
              77.2075048,
              28.6144156
            ],
            [
              77.2075048,
              28.6142717
            ]
          ]
        ]
      },
      "properties": {
        "id": "CONS_N_017",
        "meter_id": "MTR_N_017",
        "name": "LightIndustrial #17 (Z1_North)",
        "category": "LightIndustrial",
        "contracted_load_kw": 25.0,
        "height": 7.0,
        "elevation": 225.0,
        "zone_id": "Zone_1_North",
        "transformer_id": "TX_101",
        "feeder_id": "FDR_NORTH_11KV",
        "risk_level": "NORMAL",
        "probable_cause": "NORMAL",
        "anomaly_score": 29.4,
        "reported_kw": 4.104,
        "true_kw": 4.104,
        "fill_color": [
          255,
          255,
          255,
          210
        ],
        "wireframe_color": [
          148,
          163,
          184,
          200
        ],
        "is_power_station": false,
        "is_anomalous": false
      }
    },
    {
      "type": "Feature",
      "geometry": {
        "type": "Polygon",
        "coordinates": [
          [
            [
              77.2075151,
              28.6138311
            ],
            [
              77.2076585,
              28.6138311
            ],
            [
              77.2076585,
              28.613957
            ],
            [
              77.2075151,
              28.613957
            ],
            [
              77.2075151,
              28.6138311
            ]
          ]
        ]
      },
      "properties": {
        "id": "CONS_N_018",
        "meter_id": "MTR_N_018",
        "name": "Commercial #18 (Z1_North)",
        "category": "Commercial",
        "contracted_load_kw": 12.0,
        "height": 17.5,
        "elevation": 235.5,
        "zone_id": "Zone_1_North",
        "transformer_id": "TX_101",
        "feeder_id": "FDR_NORTH_11KV",
        "risk_level": "NORMAL",
        "probable_cause": "NORMAL",
        "anomaly_score": 29.4,
        "reported_kw": 6.283,
        "true_kw": 6.283,
        "fill_color": [
          255,
          255,
          255,
          210
        ],
        "wireframe_color": [
          148,
          163,
          184,
          200
        ],
        "is_power_station": false,
        "is_anomalous": false
      }
    },
    {
      "type": "Feature",
      "geometry": {
        "type": "Polygon",
        "coordinates": [
          [
            [
              77.2077302,
              28.6142897
            ],
            [
              77.2078531,
              28.6142897
            ],
            [
              77.2078531,
              28.6143977
            ],
            [
              77.2077302,
              28.6143977
            ],
            [
              77.2077302,
              28.6142897
            ]
          ]
        ]
      },
      "properties": {
        "id": "CONS_N_019",
        "meter_id": "MTR_N_019",
        "name": "Residential #19 (Z1_North)",
        "category": "Residential",
        "contracted_load_kw": 3.0,
        "height": 10.5,
        "elevation": 228.5,
        "zone_id": "Zone_1_North",
        "transformer_id": "TX_101",
        "feeder_id": "FDR_NORTH_11KV",
        "risk_level": "NORMAL",
        "probable_cause": "NORMAL",
        "anomaly_score": 29.4,
        "reported_kw": 3.276,
        "true_kw": 3.276,
        "fill_color": [
          255,
          255,
          255,
          210
        ],
        "wireframe_color": [
          148,
          163,
          184,
          200
        ],
        "is_power_station": false,
        "is_anomalous": false
      }
    },
    {
      "type": "Feature",
      "geometry": {
        "type": "Polygon",
        "coordinates": [
          [
            [
              77.20772,
              28.6138311
            ],
            [
              77.2078634,
              28.6138311
            ],
            [
              77.2078634,
              28.613957
            ],
            [
              77.20772,
              28.613957
            ],
            [
              77.20772,
              28.6138311
            ]
          ]
        ]
      },
      "properties": {
        "id": "CONS_N_020",
        "meter_id": "MTR_N_020",
        "name": "Commercial #20 (Z1_North)",
        "category": "Commercial",
        "contracted_load_kw": 8.0,
        "height": 10.5,
        "elevation": 228.5,
        "zone_id": "Zone_1_North",
        "transformer_id": "TX_101",
        "feeder_id": "FDR_NORTH_11KV",
        "risk_level": "NORMAL",
        "probable_cause": "NORMAL",
        "anomaly_score": 29.4,
        "reported_kw": 5.039,
        "true_kw": 5.039,
        "fill_color": [
          255,
          255,
          255,
          210
        ],
        "wireframe_color": [
          148,
          163,
          184,
          200
        ],
        "is_power_station": false,
        "is_anomalous": false
      }
    },
    {
      "type": "Feature",
      "geometry": {
        "type": "Polygon",
        "coordinates": [
          [
            [
              77.2081092,
              28.6142807
            ],
            [
              77.2082527,
              28.6142807
            ],
            [
              77.2082527,
              28.6144066
            ],
            [
              77.2081092,
              28.6144066
            ],
            [
              77.2081092,
              28.6142807
            ]
          ]
        ]
      },
      "properties": {
        "id": "CONS_N_021",
        "meter_id": "MTR_N_021",
        "name": "Commercial #21 (Z1_North)",
        "category": "Commercial",
        "contracted_load_kw": 15.0,
        "height": 10.5,
        "elevation": 228.5,
        "zone_id": "Zone_1_North",
        "transformer_id": "TX_101",
        "feeder_id": "FDR_NORTH_11KV",
        "risk_level": "MEDIUM",
        "probable_cause": "COMM_FAILURE",
        "anomaly_score": 68.0,
        "reported_kw": 0.0,
        "true_kw": 7.79,
        "fill_color": [
          234,
          179,
          8,
          210
        ],
        "wireframe_color": [
          148,
          163,
          184,
          200
        ],
        "is_power_station": false,
        "is_anomalous": true
      }
    },
    {
      "type": "Feature",
      "geometry": {
        "type": "Polygon",
        "coordinates": [
          [
            [
              77.2081092,
              28.6138311
            ],
            [
              77.2082527,
              28.6138311
            ],
            [
              77.2082527,
              28.613957
            ],
            [
              77.2081092,
              28.613957
            ],
            [
              77.2081092,
              28.6138311
            ]
          ]
        ]
      },
      "properties": {
        "id": "CONS_N_022",
        "meter_id": "MTR_N_022",
        "name": "Commercial #22 (Z1_North)",
        "category": "Commercial",
        "contracted_load_kw": 12.0,
        "height": 10.5,
        "elevation": 228.5,
        "zone_id": "Zone_1_North",
        "transformer_id": "TX_101",
        "feeder_id": "FDR_NORTH_11KV",
        "risk_level": "NORMAL",
        "probable_cause": "NORMAL",
        "anomaly_score": 29.4,
        "reported_kw": 6.314,
        "true_kw": 6.314,
        "fill_color": [
          255,
          255,
          255,
          210
        ],
        "wireframe_color": [
          148,
          163,
          184,
          200
        ],
        "is_power_station": false,
        "is_anomalous": false
      }
    },
    {
      "type": "Feature",
      "geometry": {
        "type": "Polygon",
        "coordinates": [
          [
            [
              77.2082834,
              28.6142807
            ],
            [
              77.2084268,
              28.6142807
            ],
            [
              77.2084268,
              28.6144066
            ],
            [
              77.2082834,
              28.6144066
            ],
            [
              77.2082834,
              28.6142807
            ]
          ]
        ]
      },
      "properties": {
        "id": "CONS_N_023",
        "meter_id": "MTR_N_023",
        "name": "Commercial #23 (Z1_North)",
        "category": "Commercial",
        "contracted_load_kw": 8.0,
        "height": 10.5,
        "elevation": 228.5,
        "zone_id": "Zone_1_North",
        "transformer_id": "TX_101",
        "feeder_id": "FDR_NORTH_11KV",
        "risk_level": "NORMAL",
        "probable_cause": "NORMAL",
        "anomaly_score": 29.4,
        "reported_kw": 5.042,
        "true_kw": 5.042,
        "fill_color": [
          255,
          255,
          255,
          210
        ],
        "wireframe_color": [
          148,
          163,
          184,
          200
        ],
        "is_power_station": false,
        "is_anomalous": false
      }
    },
    {
      "type": "Feature",
      "geometry": {
        "type": "Polygon",
        "coordinates": [
          [
            [
              77.2082936,
              28.6138401
            ],
            [
              77.2084166,
              28.6138401
            ],
            [
              77.2084166,
              28.613948
            ],
            [
              77.2082936,
              28.613948
            ],
            [
              77.2082936,
              28.6138401
            ]
          ]
        ]
      },
      "properties": {
        "id": "CONS_N_024",
        "meter_id": "MTR_N_024",
        "name": "Residential #24 (Z1_North)",
        "category": "Residential",
        "contracted_load_kw": 4.5,
        "height": 7.0,
        "elevation": 225.0,
        "zone_id": "Zone_1_North",
        "transformer_id": "TX_101",
        "feeder_id": "FDR_NORTH_11KV",
        "risk_level": "NORMAL",
        "probable_cause": "NORMAL",
        "anomaly_score": 29.4,
        "reported_kw": 4.01,
        "true_kw": 4.01,
        "fill_color": [
          255,
          255,
          255,
          210
        ],
        "wireframe_color": [
          148,
          163,
          184,
          200
        ],
        "is_power_station": false,
        "is_anomalous": false
      }
    },
    {
      "type": "Feature",
      "geometry": {
        "type": "Polygon",
        "coordinates": [
          [
            [
              77.2096254,
              28.6150991
            ],
            [
              77.2097484,
              28.6150991
            ],
            [
              77.2097484,
              28.615207
            ],
            [
              77.2096254,
              28.615207
            ],
            [
              77.2096254,
              28.6150991
            ]
          ]
        ]
      },
      "properties": {
        "id": "CONS_S_001",
        "meter_id": "MTR_S_001",
        "name": "Residential #1 (Z2_South)",
        "category": "Residential",
        "contracted_load_kw": 3.0,
        "height": 3.5,
        "elevation": 221.5,
        "zone_id": "Zone_2_South",
        "transformer_id": "TX_102",
        "feeder_id": "FDR_SOUTH_11KV",
        "risk_level": "NORMAL",
        "probable_cause": "NORMAL",
        "anomaly_score": 29.4,
        "reported_kw": 2.572,
        "true_kw": 2.572,
        "fill_color": [
          255,
          255,
          255,
          210
        ],
        "wireframe_color": [
          148,
          163,
          184,
          200
        ],
        "is_power_station": false,
        "is_anomalous": false
      }
    },
    {
      "type": "Feature",
      "geometry": {
        "type": "Polygon",
        "coordinates": [
          [
            [
              77.2096254,
              28.6146495
            ],
            [
              77.2097484,
              28.6146495
            ],
            [
              77.2097484,
              28.6147574
            ],
            [
              77.2096254,
              28.6147574
            ],
            [
              77.2096254,
              28.6146495
            ]
          ]
        ]
      },
      "properties": {
        "id": "CONS_S_002",
        "meter_id": "MTR_S_002",
        "name": "Residential #2 (Z2_South)",
        "category": "Residential",
        "contracted_load_kw": 3.0,
        "height": 7.0,
        "elevation": 225.0,
        "zone_id": "Zone_2_South",
        "transformer_id": "TX_102",
        "feeder_id": "FDR_SOUTH_11KV",
        "risk_level": "NORMAL",
        "probable_cause": "NORMAL",
        "anomaly_score": 29.4,
        "reported_kw": 2.269,
        "true_kw": 2.269,
        "fill_color": [
          255,
          255,
          255,
          210
        ],
        "wireframe_color": [
          148,
          163,
          184,
          200
        ],
        "is_power_station": false,
        "is_anomalous": false
      }
    },
    {
      "type": "Feature",
      "geometry": {
        "type": "Polygon",
        "coordinates": [
          [
            [
              77.2097996,
              28.6150991
            ],
            [
              77.2099225,
              28.6150991
            ],
            [
              77.2099225,
              28.615207
            ],
            [
              77.2097996,
              28.615207
            ],
            [
              77.2097996,
              28.6150991
            ]
          ]
        ]
      },
      "properties": {
        "id": "CONS_S_003",
        "meter_id": "MTR_S_003",
        "name": "Residential #3 (Z2_South)",
        "category": "Residential",
        "contracted_load_kw": 4.5,
        "height": 7.0,
        "elevation": 225.0,
        "zone_id": "Zone_2_South",
        "transformer_id": "TX_102",
        "feeder_id": "FDR_SOUTH_11KV",
        "risk_level": "LOW",
        "probable_cause": "LEGITIMATE_ABNORMAL",
        "anomaly_score": 32.0,
        "reported_kw": 11.578,
        "true_kw": 11.578,
        "fill_color": [
          16,
          185,
          129,
          220
        ],
        "wireframe_color": [
          148,
          163,
          184,
          200
        ],
        "is_power_station": false,
        "is_anomalous": false
      }
    },
    {
      "type": "Feature",
      "geometry": {
        "type": "Polygon",
        "coordinates": [
          [
            [
              77.2097996,
              28.6146495
            ],
            [
              77.2099225,
              28.6146495
            ],
            [
              77.2099225,
              28.6147574
            ],
            [
              77.2097996,
              28.6147574
            ],
            [
              77.2097996,
              28.6146495
            ]
          ]
        ]
      },
      "properties": {
        "id": "CONS_S_004",
        "meter_id": "MTR_S_004",
        "name": "Residential #4 (Z2_South)",
        "category": "Residential",
        "contracted_load_kw": 3.0,
        "height": 3.5,
        "elevation": 221.5,
        "zone_id": "Zone_2_South",
        "transformer_id": "TX_102",
        "feeder_id": "FDR_SOUTH_11KV",
        "risk_level": "NORMAL",
        "probable_cause": "NORMAL",
        "anomaly_score": 29.4,
        "reported_kw": 2.216,
        "true_kw": 2.216,
        "fill_color": [
          255,
          255,
          255,
          210
        ],
        "wireframe_color": [
          148,
          163,
          184,
          200
        ],
        "is_power_station": false,
        "is_anomalous": false
      }
    },
    {
      "type": "Feature",
      "geometry": {
        "type": "Polygon",
        "coordinates": [
          [
            [
              77.2101889,
              28.6150991
            ],
            [
              77.2103118,
              28.6150991
            ],
            [
              77.2103118,
              28.615207
            ],
            [
              77.2101889,
              28.615207
            ],
            [
              77.2101889,
              28.6150991
            ]
          ]
        ]
      },
      "properties": {
        "id": "CONS_S_005",
        "meter_id": "MTR_S_005",
        "name": "Residential #5 (Z2_South)",
        "category": "Residential",
        "contracted_load_kw": 6.0,
        "height": 10.5,
        "elevation": 228.5,
        "zone_id": "Zone_2_South",
        "transformer_id": "TX_102",
        "feeder_id": "FDR_SOUTH_11KV",
        "risk_level": "NORMAL",
        "probable_cause": "NORMAL",
        "anomaly_score": 29.4,
        "reported_kw": 5.505,
        "true_kw": 5.505,
        "fill_color": [
          255,
          255,
          255,
          210
        ],
        "wireframe_color": [
          148,
          163,
          184,
          200
        ],
        "is_power_station": false,
        "is_anomalous": false
      }
    },
    {
      "type": "Feature",
      "geometry": {
        "type": "Polygon",
        "coordinates": [
          [
            [
              77.2101786,
              28.6146405
            ],
            [
              77.210322,
              28.6146405
            ],
            [
              77.210322,
              28.6147664
            ],
            [
              77.2101786,
              28.6147664
            ],
            [
              77.2101786,
              28.6146405
            ]
          ]
        ]
      },
      "properties": {
        "id": "CONS_S_006",
        "meter_id": "MTR_S_006",
        "name": "Commercial #6 (Z2_South)",
        "category": "Commercial",
        "contracted_load_kw": 12.0,
        "height": 10.5,
        "elevation": 228.5,
        "zone_id": "Zone_2_South",
        "transformer_id": "TX_102",
        "feeder_id": "FDR_SOUTH_11KV",
        "risk_level": "NORMAL",
        "probable_cause": "NORMAL",
        "anomaly_score": 29.4,
        "reported_kw": 5.855,
        "true_kw": 5.855,
        "fill_color": [
          255,
          255,
          255,
          210
        ],
        "wireframe_color": [
          148,
          163,
          184,
          200
        ],
        "is_power_station": false,
        "is_anomalous": false
      }
    },
    {
      "type": "Feature",
      "geometry": {
        "type": "Polygon",
        "coordinates": [
          [
            [
              77.2103835,
              28.6150901
            ],
            [
              77.2105269,
              28.6150901
            ],
            [
              77.2105269,
              28.615216
            ],
            [
              77.2103835,
              28.615216
            ],
            [
              77.2103835,
              28.6150901
            ]
          ]
        ]
      },
      "properties": {
        "id": "CONS_S_007",
        "meter_id": "MTR_S_007",
        "name": "Commercial #7 (Z2_South)",
        "category": "Commercial",
        "contracted_load_kw": 15.0,
        "height": 14.0,
        "elevation": 232.0,
        "zone_id": "Zone_2_South",
        "transformer_id": "TX_102",
        "feeder_id": "FDR_SOUTH_11KV",
        "risk_level": "NORMAL",
        "probable_cause": "NORMAL",
        "anomaly_score": 29.4,
        "reported_kw": 8.419,
        "true_kw": 8.419,
        "fill_color": [
          255,
          255,
          255,
          210
        ],
        "wireframe_color": [
          148,
          163,
          184,
          200
        ],
        "is_power_station": false,
        "is_anomalous": false
      }
    },
    {
      "type": "Feature",
      "geometry": {
        "type": "Polygon",
        "coordinates": [
          [
            [
              77.2103937,
              28.6146495
            ],
            [
              77.2105167,
              28.6146495
            ],
            [
              77.2105167,
              28.6147574
            ],
            [
              77.2103937,
              28.6147574
            ],
            [
              77.2103937,
              28.6146495
            ]
          ]
        ]
      },
      "properties": {
        "id": "CONS_S_008",
        "meter_id": "MTR_S_008",
        "name": "Residential #8 (Z2_South)",
        "category": "Residential",
        "contracted_load_kw": 4.5,
        "height": 10.5,
        "elevation": 228.5,
        "zone_id": "Zone_2_South",
        "transformer_id": "TX_102",
        "feeder_id": "FDR_SOUTH_11KV",
        "risk_level": "NORMAL",
        "probable_cause": "NORMAL",
        "anomaly_score": 29.4,
        "reported_kw": 3.692,
        "true_kw": 3.692,
        "fill_color": [
          255,
          255,
          255,
          210
        ],
        "wireframe_color": [
          148,
          163,
          184,
          200
        ],
        "is_power_station": false,
        "is_anomalous": false
      }
    },
    {
      "type": "Feature",
      "geometry": {
        "type": "Polygon",
        "coordinates": [
          [
            [
              77.2105986,
              28.6150991
            ],
            [
              77.2107216,
              28.6150991
            ],
            [
              77.2107216,
              28.615207
            ],
            [
              77.2105986,
              28.615207
            ],
            [
              77.2105986,
              28.6150991
            ]
          ]
        ]
      },
      "properties": {
        "id": "CONS_S_009",
        "meter_id": "MTR_S_009",
        "name": "Residential #9 (Z2_South)",
        "category": "Residential",
        "contracted_load_kw": 4.5,
        "height": 3.5,
        "elevation": 221.5,
        "zone_id": "Zone_2_South",
        "transformer_id": "TX_102",
        "feeder_id": "FDR_SOUTH_11KV",
        "risk_level": "NORMAL",
        "probable_cause": "NORMAL",
        "anomaly_score": 29.4,
        "reported_kw": 3.203,
        "true_kw": 3.203,
        "fill_color": [
          255,
          255,
          255,
          210
        ],
        "wireframe_color": [
          148,
          163,
          184,
          200
        ],
        "is_power_station": false,
        "is_anomalous": false
      }
    },
    {
      "type": "Feature",
      "geometry": {
        "type": "Polygon",
        "coordinates": [
          [
            [
              77.2105986,
              28.6146495
            ],
            [
              77.2107216,
              28.6146495
            ],
            [
              77.2107216,
              28.6147574
            ],
            [
              77.2105986,
              28.6147574
            ],
            [
              77.2105986,
              28.6146495
            ]
          ]
        ]
      },
      "properties": {
        "id": "CONS_S_010",
        "meter_id": "MTR_S_010",
        "name": "Residential #10 (Z2_South)",
        "category": "Residential",
        "contracted_load_kw": 4.5,
        "height": 3.5,
        "elevation": 221.5,
        "zone_id": "Zone_2_South",
        "transformer_id": "TX_102",
        "feeder_id": "FDR_SOUTH_11KV",
        "risk_level": "NORMAL",
        "probable_cause": "NORMAL",
        "anomaly_score": 29.4,
        "reported_kw": 4.045,
        "true_kw": 4.045,
        "fill_color": [
          255,
          255,
          255,
          210
        ],
        "wireframe_color": [
          148,
          163,
          184,
          200
        ],
        "is_power_station": false,
        "is_anomalous": false
      }
    },
    {
      "type": "Feature",
      "geometry": {
        "type": "Polygon",
        "coordinates": [
          [
            [
              77.2110596,
              28.6150991
            ],
            [
              77.2111826,
              28.6150991
            ],
            [
              77.2111826,
              28.615207
            ],
            [
              77.2110596,
              28.615207
            ],
            [
              77.2110596,
              28.6150991
            ]
          ]
        ]
      },
      "properties": {
        "id": "CONS_S_011",
        "meter_id": "MTR_S_011",
        "name": "Residential #11 (Z2_South)",
        "category": "Residential",
        "contracted_load_kw": 3.0,
        "height": 10.5,
        "elevation": 228.5,
        "zone_id": "Zone_2_South",
        "transformer_id": "TX_102",
        "feeder_id": "FDR_SOUTH_11KV",
        "risk_level": "HIGH",
        "probable_cause": "METER_MALFUNCTION",
        "anomaly_score": 88.0,
        "reported_kw": 0.0,
        "true_kw": 2.343,
        "fill_color": [
          249,
          115,
          22,
          220
        ],
        "wireframe_color": [
          148,
          163,
          184,
          200
        ],
        "is_power_station": false,
        "is_anomalous": true
      }
    },
    {
      "type": "Feature",
      "geometry": {
        "type": "Polygon",
        "coordinates": [
          [
            [
              77.2110596,
              28.6146495
            ],
            [
              77.2111826,
              28.6146495
            ],
            [
              77.2111826,
              28.6147574
            ],
            [
              77.2110596,
              28.6147574
            ],
            [
              77.2110596,
              28.6146495
            ]
          ]
        ]
      },
      "properties": {
        "id": "CONS_S_012",
        "meter_id": "MTR_S_012",
        "name": "Residential #12 (Z2_South)",
        "category": "Residential",
        "contracted_load_kw": 6.0,
        "height": 10.5,
        "elevation": 228.5,
        "zone_id": "Zone_2_South",
        "transformer_id": "TX_102",
        "feeder_id": "FDR_SOUTH_11KV",
        "risk_level": "NORMAL",
        "probable_cause": "NORMAL",
        "anomaly_score": 29.4,
        "reported_kw": 4.789,
        "true_kw": 4.789,
        "fill_color": [
          255,
          255,
          255,
          210
        ],
        "wireframe_color": [
          148,
          163,
          184,
          200
        ],
        "is_power_station": false,
        "is_anomalous": false
      }
    },
    {
      "type": "Feature",
      "geometry": {
        "type": "Polygon",
        "coordinates": [
          [
            [
              77.2096254,
              28.6142897
            ],
            [
              77.2097484,
              28.6142897
            ],
            [
              77.2097484,
              28.6143977
            ],
            [
              77.2096254,
              28.6143977
            ],
            [
              77.2096254,
              28.6142897
            ]
          ]
        ]
      },
      "properties": {
        "id": "CONS_S_013",
        "meter_id": "MTR_S_013",
        "name": "Residential #13 (Z2_South)",
        "category": "Residential",
        "contracted_load_kw": 4.5,
        "height": 10.5,
        "elevation": 228.5,
        "zone_id": "Zone_2_South",
        "transformer_id": "TX_102",
        "feeder_id": "FDR_SOUTH_11KV",
        "risk_level": "NORMAL",
        "probable_cause": "NORMAL",
        "anomaly_score": 29.4,
        "reported_kw": 3.157,
        "true_kw": 3.157,
        "fill_color": [
          255,
          255,
          255,
          210
        ],
        "wireframe_color": [
          148,
          163,
          184,
          200
        ],
        "is_power_station": false,
        "is_anomalous": false
      }
    },
    {
      "type": "Feature",
      "geometry": {
        "type": "Polygon",
        "coordinates": [
          [
            [
              77.2096254,
              28.6138401
            ],
            [
              77.2097484,
              28.6138401
            ],
            [
              77.2097484,
              28.613948
            ],
            [
              77.2096254,
              28.613948
            ],
            [
              77.2096254,
              28.6138401
            ]
          ]
        ]
      },
      "properties": {
        "id": "CONS_S_014",
        "meter_id": "MTR_S_014",
        "name": "Residential #14 (Z2_South)",
        "category": "Residential",
        "contracted_load_kw": 6.0,
        "height": 7.0,
        "elevation": 225.0,
        "zone_id": "Zone_2_South",
        "transformer_id": "TX_102",
        "feeder_id": "FDR_SOUTH_11KV",
        "risk_level": "NORMAL",
        "probable_cause": "NORMAL",
        "anomaly_score": 29.4,
        "reported_kw": 4.968,
        "true_kw": 4.968,
        "fill_color": [
          255,
          255,
          255,
          210
        ],
        "wireframe_color": [
          148,
          163,
          184,
          200
        ],
        "is_power_station": false,
        "is_anomalous": false
      }
    },
    {
      "type": "Feature",
      "geometry": {
        "type": "Polygon",
        "coordinates": [
          [
            [
              77.2097996,
              28.6142897
            ],
            [
              77.2099225,
              28.6142897
            ],
            [
              77.2099225,
              28.6143977
            ],
            [
              77.2097996,
              28.6143977
            ],
            [
              77.2097996,
              28.6142897
            ]
          ]
        ]
      },
      "properties": {
        "id": "CONS_S_015",
        "meter_id": "MTR_S_015",
        "name": "Residential #15 (Z2_South)",
        "category": "Residential",
        "contracted_load_kw": 6.0,
        "height": 7.0,
        "elevation": 225.0,
        "zone_id": "Zone_2_South",
        "transformer_id": "TX_102",
        "feeder_id": "FDR_SOUTH_11KV",
        "risk_level": "NORMAL",
        "probable_cause": "NORMAL",
        "anomaly_score": 29.4,
        "reported_kw": 5.158,
        "true_kw": 5.158,
        "fill_color": [
          255,
          255,
          255,
          210
        ],
        "wireframe_color": [
          148,
          163,
          184,
          200
        ],
        "is_power_station": false,
        "is_anomalous": false
      }
    },
    {
      "type": "Feature",
      "geometry": {
        "type": "Polygon",
        "coordinates": [
          [
            [
              77.2097996,
              28.6138401
            ],
            [
              77.2099225,
              28.6138401
            ],
            [
              77.2099225,
              28.613948
            ],
            [
              77.2097996,
              28.613948
            ],
            [
              77.2097996,
              28.6138401
            ]
          ]
        ]
      },
      "properties": {
        "id": "CONS_S_016",
        "meter_id": "MTR_S_016",
        "name": "Residential #16 (Z2_South)",
        "category": "Residential",
        "contracted_load_kw": 4.5,
        "height": 3.5,
        "elevation": 221.5,
        "zone_id": "Zone_2_South",
        "transformer_id": "TX_102",
        "feeder_id": "FDR_SOUTH_11KV",
        "risk_level": "NORMAL",
        "probable_cause": "NORMAL",
        "anomaly_score": 29.4,
        "reported_kw": 4.183,
        "true_kw": 4.183,
        "fill_color": [
          255,
          255,
          255,
          210
        ],
        "wireframe_color": [
          148,
          163,
          184,
          200
        ],
        "is_power_station": false,
        "is_anomalous": false
      }
    },
    {
      "type": "Feature",
      "geometry": {
        "type": "Polygon",
        "coordinates": [
          [
            [
              77.2101889,
              28.6142897
            ],
            [
              77.2103118,
              28.6142897
            ],
            [
              77.2103118,
              28.6143977
            ],
            [
              77.2101889,
              28.6143977
            ],
            [
              77.2101889,
              28.6142897
            ]
          ]
        ]
      },
      "properties": {
        "id": "CONS_S_017",
        "meter_id": "MTR_S_017",
        "name": "Residential #17 (Z2_South)",
        "category": "Residential",
        "contracted_load_kw": 3.0,
        "height": 10.5,
        "elevation": 228.5,
        "zone_id": "Zone_2_South",
        "transformer_id": "TX_102",
        "feeder_id": "FDR_SOUTH_11KV",
        "risk_level": "NORMAL",
        "probable_cause": "NORMAL",
        "anomaly_score": 29.4,
        "reported_kw": 2.552,
        "true_kw": 2.552,
        "fill_color": [
          255,
          255,
          255,
          210
        ],
        "wireframe_color": [
          148,
          163,
          184,
          200
        ],
        "is_power_station": false,
        "is_anomalous": false
      }
    },
    {
      "type": "Feature",
      "geometry": {
        "type": "Polygon",
        "coordinates": [
          [
            [
              77.2101889,
              28.6138401
            ],
            [
              77.2103118,
              28.6138401
            ],
            [
              77.2103118,
              28.613948
            ],
            [
              77.2101889,
              28.613948
            ],
            [
              77.2101889,
              28.6138401
            ]
          ]
        ]
      },
      "properties": {
        "id": "CONS_S_018",
        "meter_id": "MTR_S_018",
        "name": "Residential #18 (Z2_South)",
        "category": "Residential",
        "contracted_load_kw": 4.5,
        "height": 3.5,
        "elevation": 221.5,
        "zone_id": "Zone_2_South",
        "transformer_id": "TX_102",
        "feeder_id": "FDR_SOUTH_11KV",
        "risk_level": "HIGH",
        "probable_cause": "THEFT_TAMPERING",
        "anomaly_score": 82.0,
        "reported_kw": 0.2,
        "true_kw": 3.768,
        "fill_color": [
          239,
          68,
          68,
          220
        ],
        "wireframe_color": [
          148,
          163,
          184,
          200
        ],
        "is_power_station": false,
        "is_anomalous": true
      }
    },
    {
      "type": "Feature",
      "geometry": {
        "type": "Polygon",
        "coordinates": [
          [
            [
              77.2103937,
              28.6142897
            ],
            [
              77.2105167,
              28.6142897
            ],
            [
              77.2105167,
              28.6143977
            ],
            [
              77.2103937,
              28.6143977
            ],
            [
              77.2103937,
              28.6142897
            ]
          ]
        ]
      },
      "properties": {
        "id": "CONS_S_019",
        "meter_id": "MTR_S_019",
        "name": "Residential #19 (Z2_South)",
        "category": "Residential",
        "contracted_load_kw": 3.0,
        "height": 3.5,
        "elevation": 221.5,
        "zone_id": "Zone_2_South",
        "transformer_id": "TX_102",
        "feeder_id": "FDR_SOUTH_11KV",
        "risk_level": "NORMAL",
        "probable_cause": "NORMAL",
        "anomaly_score": 29.4,
        "reported_kw": 3.509,
        "true_kw": 3.509,
        "fill_color": [
          255,
          255,
          255,
          210
        ],
        "wireframe_color": [
          148,
          163,
          184,
          200
        ],
        "is_power_station": false,
        "is_anomalous": false
      }
    },
    {
      "type": "Feature",
      "geometry": {
        "type": "Polygon",
        "coordinates": [
          [
            [
              77.2103835,
              28.6138311
            ],
            [
              77.2105269,
              28.6138311
            ],
            [
              77.2105269,
              28.613957
            ],
            [
              77.2103835,
              28.613957
            ],
            [
              77.2103835,
              28.6138311
            ]
          ]
        ]
      },
      "properties": {
        "id": "CONS_S_020",
        "meter_id": "MTR_S_020",
        "name": "Commercial #20 (Z2_South)",
        "category": "Commercial",
        "contracted_load_kw": 8.0,
        "height": 17.5,
        "elevation": 235.5,
        "zone_id": "Zone_2_South",
        "transformer_id": "TX_102",
        "feeder_id": "FDR_SOUTH_11KV",
        "risk_level": "NORMAL",
        "probable_cause": "NORMAL",
        "anomaly_score": 29.4,
        "reported_kw": 4.758,
        "true_kw": 4.758,
        "fill_color": [
          255,
          255,
          255,
          210
        ],
        "wireframe_color": [
          148,
          163,
          184,
          200
        ],
        "is_power_station": false,
        "is_anomalous": false
      }
    },
    {
      "type": "Feature",
      "geometry": {
        "type": "Polygon",
        "coordinates": [
          [
            [
              77.2105986,
              28.6142897
            ],
            [
              77.2107216,
              28.6142897
            ],
            [
              77.2107216,
              28.6143977
            ],
            [
              77.2105986,
              28.6143977
            ],
            [
              77.2105986,
              28.6142897
            ]
          ]
        ]
      },
      "properties": {
        "id": "CONS_S_021",
        "meter_id": "MTR_S_021",
        "name": "Residential #21 (Z2_South)",
        "category": "Residential",
        "contracted_load_kw": 3.0,
        "height": 10.5,
        "elevation": 228.5,
        "zone_id": "Zone_2_South",
        "transformer_id": "TX_102",
        "feeder_id": "FDR_SOUTH_11KV",
        "risk_level": "NORMAL",
        "probable_cause": "NORMAL",
        "anomaly_score": 29.4,
        "reported_kw": 2.284,
        "true_kw": 2.284,
        "fill_color": [
          255,
          255,
          255,
          210
        ],
        "wireframe_color": [
          148,
          163,
          184,
          200
        ],
        "is_power_station": false,
        "is_anomalous": false
      }
    },
    {
      "type": "Feature",
      "geometry": {
        "type": "Polygon",
        "coordinates": [
          [
            [
              77.2105986,
              28.6138401
            ],
            [
              77.2107216,
              28.6138401
            ],
            [
              77.2107216,
              28.613948
            ],
            [
              77.2105986,
              28.613948
            ],
            [
              77.2105986,
              28.6138401
            ]
          ]
        ]
      },
      "properties": {
        "id": "CONS_S_022",
        "meter_id": "MTR_S_022",
        "name": "Residential #22 (Z2_South)",
        "category": "Residential",
        "contracted_load_kw": 4.5,
        "height": 10.5,
        "elevation": 228.5,
        "zone_id": "Zone_2_South",
        "transformer_id": "TX_102",
        "feeder_id": "FDR_SOUTH_11KV",
        "risk_level": "NORMAL",
        "probable_cause": "NORMAL",
        "anomaly_score": 29.4,
        "reported_kw": 3.389,
        "true_kw": 3.389,
        "fill_color": [
          255,
          255,
          255,
          210
        ],
        "wireframe_color": [
          148,
          163,
          184,
          200
        ],
        "is_power_station": false,
        "is_anomalous": false
      }
    },
    {
      "type": "Feature",
      "geometry": {
        "type": "Polygon",
        "coordinates": [
          [
            [
              77.2110494,
              28.6142807
            ],
            [
              77.2111928,
              28.6142807
            ],
            [
              77.2111928,
              28.6144066
            ],
            [
              77.2110494,
              28.6144066
            ],
            [
              77.2110494,
              28.6142807
            ]
          ]
        ]
      },
      "properties": {
        "id": "CONS_S_023",
        "meter_id": "MTR_S_023",
        "name": "Commercial #23 (Z2_South)",
        "category": "Commercial",
        "contracted_load_kw": 8.0,
        "height": 14.0,
        "elevation": 232.0,
        "zone_id": "Zone_2_South",
        "transformer_id": "TX_102",
        "feeder_id": "FDR_SOUTH_11KV",
        "risk_level": "NORMAL",
        "probable_cause": "NORMAL",
        "anomaly_score": 29.4,
        "reported_kw": 4.557,
        "true_kw": 4.557,
        "fill_color": [
          255,
          255,
          255,
          210
        ],
        "wireframe_color": [
          148,
          163,
          184,
          200
        ],
        "is_power_station": false,
        "is_anomalous": false
      }
    },
    {
      "type": "Feature",
      "geometry": {
        "type": "Polygon",
        "coordinates": [
          [
            [
              77.2110596,
              28.6138401
            ],
            [
              77.2111826,
              28.6138401
            ],
            [
              77.2111826,
              28.613948
            ],
            [
              77.2110596,
              28.613948
            ],
            [
              77.2110596,
              28.6138401
            ]
          ]
        ]
      },
      "properties": {
        "id": "CONS_S_024",
        "meter_id": "MTR_S_024",
        "name": "Residential #24 (Z2_South)",
        "category": "Residential",
        "contracted_load_kw": 4.5,
        "height": 10.5,
        "elevation": 228.5,
        "zone_id": "Zone_2_South",
        "transformer_id": "TX_102",
        "feeder_id": "FDR_SOUTH_11KV",
        "risk_level": "NORMAL",
        "probable_cause": "NORMAL",
        "anomaly_score": 29.4,
        "reported_kw": 3.784,
        "true_kw": 3.784,
        "fill_color": [
          255,
          255,
          255,
          210
        ],
        "wireframe_color": [
          148,
          163,
          184,
          200
        ],
        "is_power_station": false,
        "is_anomalous": false
      }
    }
  ]
}